[Satellite]
VERSION=1.1
NAME=TEVEL-3
NICKNAME=TEVEL-3
TLE1=1 50988U 22002E   22342.33200486  .00009462  00000+0  47897-3 0  9993
TLE2=2 50988  97.4632  46.5050 0009485 172.3861 251.9872 15.17184257 49757
STATUS=0
